[{"OBJECT_NAME":"TOMORROW-S9","OBJECT_ID":"2025-248S","EPOCH":"2026-03-09T00:52:57.672768","MEAN_MOTION":15.1924557,"ECCENTRICITY":0.00037045,"INCLINATION":45.4048,"RA_OF_ASC_NODE":298.2875,"ARG_OF_PERICENTER":215.4557,"MEAN_ANOMALY":144.6083,"EPHEMERIS_TYPE":0,"CLASSIFICATION_TYPE":"U","NORAD_CAT_ID":66309,"ELEMENT_SET_NO":999,"REV_AT_EPOCH":1927,"BSTAR":0.00031245466,"MEAN_MOTION_DOT":6.428e-5,"MEAN_MOTION_DDOT":0},{"OBJECT_NAME":"SITRO-TD-4","OBJECT_ID":"2025-313T","EPOCH":"2026-03-09T22:34:21.722880","MEAN_MOTION":15.21536332,"ECCENTRICITY":0.00145785,"INCLINATION":97.4001,"RA_OF_ASC_NODE":145.1931,"ARG_OF_PERICENTER":358.8539,"MEAN_ANOMALY":1.2661,"EPHEMERIS_TYPE":0,"CLASSIFICATION_TYPE":"U","NORAD_CAT_ID":67265,"ELEMENT_SET_NO":999,"REV_AT_EPOCH":1085,"BSTAR":0.00050945291,"MEAN_MOTION_DOT":0.00011446,"MEAN_MOTION_DDOT":0}]
